start=new Date('2022-05-04T00:00:00.000Z').valueOf();
sats=[{"TLE_LINE1":"1 46558U 20070AC  22123.84025482 -.00000230  00000-0  34635-5 0  9992","OBJECT_ID":"2020-070AC","BSTAR":"0.00000346350000","MEAN_MOTION":"15.06391284","PERIOD":"95.593","MEAN_ANOMALY":"291.0488","REF_FRAME":"TEME","EPOCH":"2022-05-03T20:09:58.016448","OBJECT_NAME":"STARLINK-1680","GP_ID":"202633725","NORAD_CAT_ID":"46558","LAUNCH_DATE":"2020-10-06","PERIAPSIS":"546.264","DECAY_DATE":null,"OBJECT_TYPE":"PAYLOAD","FILE":"3427573","INCLINATION":"53.0558","RCS_SIZE":"LARGE","TIME_SYSTEM":"UTC","ARG_OF_PERICENTER":"69.0652","CLASSIFICATION_TYPE":"U","MEAN_MOTION_DDOT":"0.0000000000000","COUNTRY_CODE":"US","ECCENTRICITY":"0.00014090","SITE":"AFETR","EPHEMERIS_TYPE":"0","SEMIMAJOR_AXIS":"6925.375","MEAN_MOTION_DOT":"-0.00000230","ELEMENT_SET_NO":"999","REV_AT_EPOCH":"8779","APOAPSIS":"548.216","MEAN_ELEMENT_THEORY":"SGP4","RA_OF_ASC_NODE":"352.7099","TLE_LINE2":"2 46558  53.0558 352.7099 0001409  69.0652 291.0488 15.06391284 87795","CENTER_NAME":"EARTH"},{"EPOCH":"2022-05-03T16:42:17.865504","MEAN_ANOMALY":"280.2125","REF_FRAME":"TEME","DECAY_DATE":null,"FILE":"3427573","INCLINATION":"53.0564","OBJECT_TYPE":"PAYLOAD","LAUNCH_DATE":"2020-10-06","PERIAPSIS":"546.346","NORAD_CAT_ID":"46559","GP_ID":"202633473","OBJECT_NAME":"STARLINK-1681","BSTAR":"0.00004867200000","OBJECT_ID":"2020-070AD","TLE_LINE1":"1 46559U 20070AD  22123.69604011  .00000444  00000-0  48672-4 0  9998","MEAN_MOTION":"15.06393878","PERIOD":"95.593","ELEMENT_SET_NO":"999","MEAN_MOTION_DOT":"0.00000444","SEMIMAJOR_AXIS":"6925.367","APOAPSIS":"548.119","MEAN_ELEMENT_THEORY":"SGP4","CENTER_NAME":"EARTH","TLE_LINE2":"2 46559  53.0564 338.3684 0001280  79.9008 280.2125 15.06393878 88009","RA_OF_ASC_NODE":"338.3684","REV_AT_EPOCH":"8800","TIME_SYSTEM":"UTC","RCS_SIZE":"LARGE","ARG_OF_PERICENTER":"79.9008","ECCENTRICITY":"0.00012800","SITE":"AFETR","EPHEMERIS_TYPE":"0","CLASSIFICATION_TYPE":"U","MEAN_MOTION_DDOT":"0.0000000000000","COUNTRY_CODE":"US"},{"SEMIMAJOR_AXIS":"6925.381","MEAN_MOTION_DOT":"0.00002203","ELEMENT_SET_NO":"999","REV_AT_EPOCH":"8770","TLE_LINE2":"2 46560  53.0556 356.2209 0001315  73.0338 287.0795 15.06389427 87703","CENTER_NAME":"EARTH","RA_OF_ASC_NODE":"356.2209","APOAPSIS":"548.157","MEAN_ELEMENT_THEORY":"SGP4","ARG_OF_PERICENTER":"73.0338","TIME_SYSTEM":"UTC","RCS_SIZE":"LARGE","MEAN_MOTION_DDOT":"0.0000000000000","COUNTRY_CODE":"US","CLASSIFICATION_TYPE":"U","SITE":"AFETR","EPHEMERIS_TYPE":"0","ECCENTRICITY":"0.00013150","MEAN_ANOMALY":"287.0795","REF_FRAME":"TEME","EPOCH":"2022-05-03T01:24:43.222176","PERIAPSIS":"546.335","LAUNCH_DATE":"2020-10-06","NORAD_CAT_ID":"46560","GP_ID":"202600305","OBJECT_NAME":"STARLINK-1706","FILE":"3427159","INCLINATION":"53.0556","OBJECT_TYPE":"PAYLOAD","DECAY_DATE":null,"TLE_LINE1":"1 46560U 20070AE  22123.05883359  .00002203  00000-0  16681-3 0  9993","BSTAR":"0.00016681000000","OBJECT_ID":"2020-070AE","PERIOD":"95.593","MEAN_MOTION":"15.06389427"},{"INCLINATION":"53.0541","FILE":"3427573","OBJECT_TYPE":"PAYLOAD","DECAY_DATE":null,"PERIAPSIS":"546.192","LAUNCH_DATE":"2020-10-06","GP_ID":"202634478","OBJECT_NAME":"STARLINK-1709","NORAD_CAT_ID":"46561","REF_FRAME":"TEME","MEAN_ANOMALY":"289.3632","EPOCH":"2022-05-03T20:52:25.851360","PERIOD":"95.593","MEAN_MOTION":"15.06393380","OBJECT_ID":"2020-070AF","BSTAR":"0.00012274000000","TLE_LINE1":"1 46561U 20070AF  22123.86974365  .00001547  00000-0  12274-3 0  9995","TLE_LINE2":"2 46561  53.0541 352.6019 0001504  70.7520 289.3632 15.06393380 87825","CENTER_NAME":"EARTH","RA_OF_ASC_NODE":"352.6019","APOAPSIS":"548.275","MEAN_ELEMENT_THEORY":"SGP4","REV_AT_EPOCH":"8782","ELEMENT_SET_NO":"999","MEAN_MOTION_DOT":"0.00001547","SEMIMAJOR_AXIS":"6925.369","SITE":"AFETR","EPHEMERIS_TYPE":"0","ECCENTRICITY":"0.00015040","COUNTRY_CODE":"US","MEAN_MOTION_DDOT":"0.0000000000000","CLASSIFICATION_TYPE":"U","ARG_OF_PERICENTER":"70.7520","TIME_SYSTEM":"UTC","RCS_SIZE":"LARGE"},{"MEAN_MOTION":"15.06394078","PERIOD":"95.593","TLE_LINE1":"1 46562U 20070AG  22123.87204861  .00009079  00000-0  62768-3 0  9995","OBJECT_ID":"2020-070AG","BSTAR":"0.00062768000000","LAUNCH_DATE":"2020-10-06","PERIAPSIS":"546.123","NORAD_CAT_ID":"46562","GP_ID":"202633226","OBJECT_NAME":"STARLINK-1714","DECAY_DATE":null,"FILE":"3427573","INCLINATION":"53.0538","OBJECT_TYPE":"PAYLOAD","REF_FRAME":"TEME","EPOCH":"2022-05-03T20:55:44.999904","MEAN_ANOMALY":"275.2054","CLASSIFICATION_TYPE":"U","MEAN_MOTION_DDOT":"0.0000000000000","COUNTRY_CODE":"US","ECCENTRICITY":"0.00016010","SITE":"AFETR","EPHEMERIS_TYPE":"0","TIME_SYSTEM":"UTC","RCS_SIZE":"LARGE","ARG_OF_PERICENTER":"84.9117","REV_AT_EPOCH":"8789","APOAPSIS":"548.340","MEAN_ELEMENT_THEORY":"SGP4","TLE_LINE2":"2 46562  53.0538 347.5900 0001601  84.9117 275.2054 15.06394078 87895","CENTER_NAME":"EARTH","RA_OF_ASC_NODE":"347.5900","SEMIMAJOR_AXIS":"6925.367","ELEMENT_SET_NO":"999","MEAN_MOTION_DOT":"0.00009079"},{"FILE":"3427552","INCLINATION":"53.0582","OBJECT_TYPE":"PAYLOAD","DECAY_DATE":null,"LAUNCH_DATE":"2020-10-06","PERIAPSIS":"546.094","GP_ID":"202611208","NORAD_CAT_ID":"46563","OBJECT_NAME":"STARLINK-1730","MEAN_ANOMALY":"290.6316","REF_FRAME":"TEME","EPOCH":"2022-05-03T07:44:53.326752","PERIOD":"95.593","MEAN_MOTION":"15.06387940","OBJECT_ID":"2020-070AH","BSTAR":"0.00002747800000","TLE_LINE1":"1 46563U 20070AH  22123.32283943  .00000128  00000-0  27478-4 0  9990","TLE_LINE2":"2 46563  53.0582 350.0482 0001670  69.4853 290.6316 15.06387940 87825","CENTER_NAME":"EARTH","RA_OF_ASC_NODE":"350.0482","APOAPSIS":"548.407","MEAN_ELEMENT_THEORY":"SGP4","REV_AT_EPOCH":"8782","ELEMENT_SET_NO":"999","MEAN_MOTION_DOT":"0.00000128","SEMIMAJOR_AXIS":"6925.386","SITE":"AFETR","EPHEMERIS_TYPE":"0","ECCENTRICITY":"0.00016700","MEAN_MOTION_DDOT":"0.0000000000000","COUNTRY_CODE":"US","CLASSIFICATION_TYPE":"U","ARG_OF_PERICENTER":"69.4853","TIME_SYSTEM":"UTC","RCS_SIZE":"LARGE"},{"ARG_OF_PERICENTER":"74.1363","TIME_SYSTEM":"UTC","RCS_SIZE":"LARGE","EPHEMERIS_TYPE":"0","SITE":"AFETR","ECCENTRICITY":"0.00013870","COUNTRY_CODE":"US","MEAN_MOTION_DDOT":"0.0000000000000","CLASSIFICATION_TYPE":"U","MEAN_MOTION_DOT":"0.00006754","ELEMENT_SET_NO":"999","SEMIMAJOR_AXIS":"6925.326","TLE_LINE2":"2 46564  53.0536 347.7463 0001387  74.1363 285.9779 15.06407398 87898","CENTER_NAME":"EARTH","RA_OF_ASC_NODE":"347.7463","APOAPSIS":"548.151","MEAN_ELEMENT_THEORY":"SGP4","REV_AT_EPOCH":"8789","BSTAR":"0.00047176000000","OBJECT_ID":"2020-070AJ","TLE_LINE1":"1 46564U 20070AJ  22123.83518419  .00006754  00000-0  47176-3 0  9993","PERIOD":"95.592","MEAN_MOTION":"15.06407398","REF_FRAME":"TEME","MEAN_ANOMALY":"285.9779","EPOCH":"2022-05-03T20:02:39.914016","INCLINATION":"53.0536","FILE":"3427573","OBJECT_TYPE":"PAYLOAD","DECAY_DATE":null,"LAUNCH_DATE":"2020-10-06","PERIAPSIS":"546.230","GP_ID":"202634727","NORAD_CAT_ID":"46564","OBJECT_NAME":"STARLINK-1733"},{"ELEMENT_SET_NO":"999","MEAN_MOTION_DOT":"0.00001467","SEMIMAJOR_AXIS":"6925.369","APOAPSIS":"548.360","MEAN_ELEMENT_THEORY":"SGP4","RA_OF_ASC_NODE":"348.1513","CENTER_NAME":"EARTH","TLE_LINE2":"2 46565  53.0559 348.1513 0001626  64.4218 295.6939 15.06393451 87870","REV_AT_EPOCH":"8787","RCS_SIZE":"LARGE","TIME_SYSTEM":"UTC","ARG_OF_PERICENTER":"64.4218","ECCENTRICITY":"0.00016260","SITE":"AFETR","EPHEMERIS_TYPE":"0","CLASSIFICATION_TYPE":"U","COUNTRY_CODE":"US","MEAN_MOTION_DDOT":"0.0000000000000","EPOCH":"2022-05-03T17:55:17.140224","REF_FRAME":"TEME","MEAN_ANOMALY":"295.6939","DECAY_DATE":null,"OBJECT_TYPE":"PAYLOAD","FILE":"3427573","INCLINATION":"53.0559","GP_ID":"202634977","OBJECT_NAME":"STARLINK-1735","NORAD_CAT_ID":"46565","PERIAPSIS":"546.108","LAUNCH_DATE":"2020-10-06","BSTAR":"0.00011741000000","OBJECT_ID":"2020-070AK","TLE_LINE1":"1 46565U 20070AK  22123.74672616  .00001467  00000-0  11741-3 0  9999","MEAN_MOTION":"15.06393451","PERIOD":"95.593"},{"ECCENTRICITY":"0.00015530","SITE":"AFETR","EPHEMERIS_TYPE":"0","CLASSIFICATION_TYPE":"U","MEAN_MOTION_DDOT":"0.0000000000000","COUNTRY_CODE":"US","RCS_SIZE":"LARGE","TIME_SYSTEM":"UTC","ARG_OF_PERICENTER":"58.5611","APOAPSIS":"548.328","MEAN_ELEMENT_THEORY":"SGP4","RA_OF_ASC_NODE":"349.9843","CENTER_NAME":"EARTH","TLE_LINE2":"2 46566  53.0561 349.9843 0001553  58.5611 301.5529 15.06387199 87817","REV_AT_EPOCH":"8781","MEAN_MOTION_DOT":"0.00001257","ELEMENT_SET_NO":"999","SEMIMAJOR_AXIS":"6925.388","MEAN_MOTION":"15.06387199","PERIOD":"95.593","OBJECT_ID":"2020-070AL","BSTAR":"0.00010331000000","TLE_LINE1":"1 46566U 20070AL  22123.33389669  .00001257  00000-0  10331-3 0  9999","DECAY_DATE":null,"OBJECT_TYPE":"PAYLOAD","FILE":"3427159","INCLINATION":"53.0561","GP_ID":"202599304","OBJECT_NAME":"STARLINK-1740","NORAD_CAT_ID":"46566","LAUNCH_DATE":"2020-10-06","PERIAPSIS":"546.177","EPOCH":"2022-05-03T08:00:48.674016","REF_FRAME":"TEME","MEAN_ANOMALY":"301.5529"},{"REF_FRAME":"TEME","MEAN_ANOMALY":"285.8170","EPOCH":"2022-05-03T19:52:02.525664","DECAY_DATE":null,"OBJECT_TYPE":"PAYLOAD","FILE":"3427573","INCLINATION":"53.0539","GP_ID":"202633474","OBJECT_NAME":"STARLINK-1741","NORAD_CAT_ID":"46567","PERIAPSIS":"546.172","LAUNCH_DATE":"2020-10-06","BSTAR":"0.00012839000000","OBJECT_ID":"2020-070AM","TLE_LINE1":"1 46567U 20070AM  22123.82780701  .00001631  00000-0  12839-3 0  9997","MEAN_MOTION":"15.06400862","PERIOD":"95.592","ELEMENT_SET_NO":"999","MEAN_MOTION_DOT":"0.00001631","SEMIMAJOR_AXIS":"6925.346","MEAN_ELEMENT_THEORY":"SGP4","APOAPSIS":"548.250","RA_OF_ASC_NODE":"347.7789","CENTER_NAME":"EARTH","TLE_LINE2":"2 46567  53.0539 347.7789 0001500  74.2985 285.8170 15.06400862 87896","REV_AT_EPOCH":"8789","RCS_SIZE":"LARGE","TIME_SYSTEM":"UTC","ARG_OF_PERICENTER":"74.2985","ECCENTRICITY":"0.00015000","SITE":"AFETR","EPHEMERIS_TYPE":"0","CLASSIFICATION_TYPE":"U","COUNTRY_CODE":"US","MEAN_MOTION_DDOT":"0.0000000000000"}];
